QIANFAN-49              
1 62250U 24232P   25330.17570705  .00000180  00000+0  26014-3 0  9997
2 62250  89.0041  42.9049 0012856 237.0535 122.9381 13.50974014 65601
QIANFAN-50              
1 62251U 24232Q   25330.20039117  .00000194  00000+0  28134-3 0  9999
2 62251  89.0046  42.9097 0014476 239.0817 120.8912 13.50975534 65633
QIANFAN-51              
1 62252U 24232R   25330.18394007  .00000162  00000+0  23325-3 0  9991
2 62252  89.0040  42.9062 0011871 242.2293 117.7655 13.50973714 65626
QIANFAN-52              
1 62253U 24232S   25330.13867861  .00000179  00000+0  25871-3 0  9996
2 62253  89.0036  42.7850 0014063 234.6944 125.2893 13.50979196 65706
QIANFAN-53              
1 62254U 24232T   25330.19216222  .00000171  00000+0  24583-3 0  9993
2 62254  89.0044  42.8829 0012930 235.2390 124.7544 13.50974223 65675
QIANFAN-54              
1 62255U 24232U   25330.15928843  .00000177  00000+0  25636-3 0  9995
2 62255  89.0035  42.5662 0000184 244.0163 116.0969 13.50974404 97178
QIANFAN-55              
1 62785U 25016A   25330.11144530  .00000151  00000+0  21551-3 0  9997
2 62785  88.9768 104.9246 0018077  41.3419 318.9097 13.50982158 44947
QIANFAN-56              
1 62786U 25016B   25330.12774656  .00000044  00000+0  48853-4 0  9993
2 62786  88.9741 104.7639 0016784  43.9656 316.2827 13.50973140 44995
